GLOBALSTAR M075 [+]     
1 37192U 10054E   24095.25600583 -.00000095  00000+0  46267-4 0  9994
2 37192  51.9943  77.9841 0000444  64.1080  38.2976 12.62272075620571
GLOBALSTAR M073 [+]     
1 37193U 10054F   24095.19059727 -.00000074  00000+0  16814-3 0  9997
2 37193  52.0086 351.6698 0000786  84.2310  81.3581 12.62263167622397
GLOBALSTAR M083 [+]     
1 37739U 11033A   24095.28422991 -.00000056  00000+0  26939-3 0  9997
2 37739  51.9857 300.7169 0000700  75.5256  96.0503 12.62267728591426
GLOBALSTAR M088 [+]     
1 37740U 11033B   24095.61874723 -.00000109  00000+0 -29925-4 0  9999
2 37740  51.9725 205.5557 0000564  94.4866 278.5186 12.62266642587018
GLOBALSTAR M091 [+]     
1 37741U 11033C   24095.47368588 -.00000097  00000+0  40488-4 0  9993
2 37741  51.9985 168.7683 0000395  75.9040 297.8158 12.62261282587789
GLOBALSTAR M081 [+]     
1 37743U 11033E   24095.32840259 -.00000083  00000+0  11668-3 0  9991
2 37743  51.9938 123.1536 0000500  64.9364 307.8463 12.62263862588425
GLOBALSTAR M089 [+]     
1 37744U 11033F   24095.40161583 -.00000088  00000+0  90377-4 0  9997
2 37744  51.9926  77.2397 0000623 106.8004  58.0424 12.62261651589270
